QIANFAN-86              
1 63172U 25046P   26066.13671237  .00000165  00000+0  23639-3 0  9993
2 63172  88.9759 311.0686 0009289 246.9114 113.1059 13.51001975 58945
QIANFAN-87              
1 63173U 25046Q   26066.18204507  .00000176  00000+0  25459-3 0  9995
2 63173  88.9755 311.1722 0009989 241.0601 118.9549 13.51010381 58889
QIANFAN-88              
1 63174U 25046R   26066.12431842  .00000169  00000+0  24309-3 0  9999
2 63174  88.9758 311.1349 0010335 251.0258 108.9774 13.50998690 58903
QIANFAN-89              
1 63175U 25046S   26066.16149653  .00000174  00000+0  25092-3 0  9996
2 63175  88.9758 311.3201 0014865 240.3317 119.6354 13.51009225 58802
QIANFAN-90              
1 63176U 25046T   26066.19033179  .00000193  00000+0  28089-3 0  9995
2 63176  88.9758 311.2897 0011819 238.0995 121.9007 13.51009213 58825
QIANFAN-91              
1 66033U 25233A   26066.14881183  .00000034  00000+0  34478-4 0  9993
2 66033  88.9933  53.5054 0001968  92.0931 268.0445 13.51004590 19401
QIANFAN-92              
1 66034U 25233B   26066.15697690  .00000009  00000+0 -48237-5 0  9995
2 66034  88.9917  53.4930 0001963  85.8591 274.2784 13.51005876 19406
QIANFAN-93              
1 66035U 25233C   26066.09114800  .00000038  00000+0  40504-4 0  9995
2 66035  88.9943  53.5240 0001934  90.7123 269.4250 13.51004992 19395
QIANFAN-94              
1 66036U 25233D   26066.15272348  .00000020  00000+0  13058-4 0  9990
2 66036  88.9941  53.4244 0002067  87.6113 272.5275 13.50991910 19452
QIANFAN-95              
1 66037U 25233E   26066.08688970  .00000017  00000+0  74778-5 0  9998
2 66037  88.9938  52.9774 0002086  93.0102 267.1288 13.51015260 19697
QIANFAN-96              
1 66038U 25233F   26066.18582950  .00000032  00000+0  31161-4 0  9996
2 66038  88.9935  53.5133 0001981  94.1609 265.9769 13.51004763 19403
QIANFAN-97              
1 66039U 25233G   26066.09529473  .00000032  00000+0  30651-4 0  9991
2 66039  88.9938  53.5031 0001953  92.1448 267.9927 13.51004156 19406
QIANFAN-98              
1 66040U 25233H   26066.10347101  .00000034  00000+0  33728-4 0  9991
2 66040  88.9928  53.2443 0002459  84.1712 275.9719 13.51004624 19541
QIANFAN-99              
1 66041U 25233J   26066.10763263  .00000032  00000+0  30355-4 0  9994
2 66041  88.9939  53.5053 0002352  87.8588 272.2833 13.51004913 19400
QIANFAN-100             
1 66042U 25233K   26066.09937424  .00000030  00000+0  27568-4 0  9995
2 66042  88.9950  53.4217 0001938  91.1311 269.0062 13.51005682 19453
QIANFAN-101             
1 66043U 25233L   26066.11067741  .00000665  00000+0  26858-3 0  9999
2 66043  88.9940  52.2818 0016989 114.6382 245.6584 14.26736151 20072
QIANFAN-102             
1 66044U 25233M   26066.11983155  .00000026  00000+0  21277-4 0  9998
2 66044  88.9937  53.4161 0002102  88.1836 271.9556 13.50992517 19451
