[{"OBJECT_NAME":"QIANFAN-86","OBJECT_ID":"2025-046P","EPOCH":"2026-03-07T03:16:51.948768","MEAN_MOTION":13.51001975,"ECCENTRICITY":0.0009289,"INCLINATION":88.9759,"RA_OF_ASC_NODE":311.0686,"ARG_OF_PERICENTER":246.9114,"MEAN_ANOMALY":113.1059,"EPHEMERIS_TYPE":0,"CLASSIFICATION_TYPE":"U","NORAD_CAT_ID":63172,"ELEMENT_SET_NO":999,"REV_AT_EPOCH":5894,"BSTAR":0.00023639,"MEAN_MOTION_DOT":1.65e-6,"MEAN_MOTION_DDOT":0},{"OBJECT_NAME":"QIANFAN-87","OBJECT_ID":"2025-046Q","EPOCH":"2026-03-07T04:22:08.694048","MEAN_MOTION":13.51010381,"ECCENTRICITY":0.0009989,"INCLINATION":88.9755,"RA_OF_ASC_NODE":311.1722,"ARG_OF_PERICENTER":241.0601,"MEAN_ANOMALY":118.9549,"EPHEMERIS_TYPE":0,"CLASSIFICATION_TYPE":"U","NORAD_CAT_ID":63173,"ELEMENT_SET_NO":999,"REV_AT_EPOCH":5888,"BSTAR":0.00025459,"MEAN_MOTION_DOT":1.76e-6,"MEAN_MOTION_DDOT":0},{"OBJECT_NAME":"QIANFAN-88","OBJECT_ID":"2025-046R","EPOCH":"2026-03-07T02:59:01.111488","MEAN_MOTION":13.5099869,"ECCENTRICITY":0.0010335,"INCLINATION":88.9758,"RA_OF_ASC_NODE":311.1349,"ARG_OF_PERICENTER":251.0258,"MEAN_ANOMALY":108.9774,"EPHEMERIS_TYPE":0,"CLASSIFICATION_TYPE":"U","NORAD_CAT_ID":63174,"ELEMENT_SET_NO":999,"REV_AT_EPOCH":5890,"BSTAR":0.00024309,"MEAN_MOTION_DOT":1.69e-6,"MEAN_MOTION_DDOT":0},{"OBJECT_NAME":"QIANFAN-89","OBJECT_ID":"2025-046S","EPOCH":"2026-03-07T03:52:33.300192","MEAN_MOTION":13.51009225,"ECCENTRICITY":0.0014865,"INCLINATION":88.9758,"RA_OF_ASC_NODE":311.3201,"ARG_OF_PERICENTER":240.3317,"MEAN_ANOMALY":119.6354,"EPHEMERIS_TYPE":0,"CLASSIFICATION_TYPE":"U","NORAD_CAT_ID":63175,"ELEMENT_SET_NO":999,"REV_AT_EPOCH":5880,"BSTAR":0.00025092,"MEAN_MOTION_DOT":1.74e-6,"MEAN_MOTION_DDOT":0},{"OBJECT_NAME":"QIANFAN-90","OBJECT_ID":"2025-046T","EPOCH":"2026-03-07T04:34:04.666656","MEAN_MOTION":13.51009213,"ECCENTRICITY":0.0011819,"INCLINATION":88.9758,"RA_OF_ASC_NODE":311.2897,"ARG_OF_PERICENTER":238.0995,"MEAN_ANOMALY":121.9007,"EPHEMERIS_TYPE":0,"CLASSIFICATION_TYPE":"U","NORAD_CAT_ID":63176,"ELEMENT_SET_NO":999,"REV_AT_EPOCH":5882,"BSTAR":0.00028089,"MEAN_MOTION_DOT":1.93e-6,"MEAN_MOTION_DDOT":0},{"OBJECT_NAME":"QIANFAN-91","OBJECT_ID":"2025-233A","EPOCH":"2026-03-07T03:34:17.342112","MEAN_MOTION":13.5100459,"ECCENTRICITY":0.0001968,"INCLINATION":88.9933,"RA_OF_ASC_NODE":53.5054,"ARG_OF_PERICENTER":92.0931,"MEAN_ANOMALY":268.0445,"EPHEMERIS_TYPE":0,"CLASSIFICATION_TYPE":"U","NORAD_CAT_ID":66033,"ELEMENT_SET_NO":999,"REV_AT_EPOCH":1940,"BSTAR":3.4478e-5,"MEAN_MOTION_DOT":3.4e-7,"MEAN_MOTION_DDOT":0},{"OBJECT_NAME":"QIANFAN-92","OBJECT_ID":"2025-233B","EPOCH":"2026-03-07T03:46:02.804160","MEAN_MOTION":13.51005876,"ECCENTRICITY":0.0001963,"INCLINATION":88.9917,"RA_OF_ASC_NODE":53.493,"ARG_OF_PERICENTER":85.8591,"MEAN_ANOMALY":274.2784,"EPHEMERIS_TYPE":0,"CLASSIFICATION_TYPE":"U","NORAD_CAT_ID":66034,"ELEMENT_SET_NO":999,"REV_AT_EPOCH":1940,"BSTAR":-4.8237e-6,"MEAN_MOTION_DOT":9.0e-8,"MEAN_MOTION_DDOT":0},{"OBJECT_NAME":"QIANFAN-93","OBJECT_ID":"2025-233C","EPOCH":"2026-03-07T02:11:15.187200","MEAN_MOTION":13.51004992,"ECCENTRICITY":0.0001934,"INCLINATION":88.9943,"RA_OF_ASC_NODE":53.524,"ARG_OF_PERICENTER":90.7123,"MEAN_ANOMALY":269.425,"EPHEMERIS_TYPE":0,"CLASSIFICATION_TYPE":"U","NORAD_CAT_ID":66035,"ELEMENT_SET_NO":999,"REV_AT_EPOCH":1939,"BSTAR":4.0504e-5,"MEAN_MOTION_DOT":3.8e-7,"MEAN_MOTION_DDOT":0},{"OBJECT_NAME":"QIANFAN-94","OBJECT_ID":"2025-233D","EPOCH":"2026-03-07T03:39:55.308672","MEAN_MOTION":13.5099191,"ECCENTRICITY":0.0002067,"INCLINATION":88.9941,"RA_OF_ASC_NODE":53.4244,"ARG_OF_PERICENTER":87.6113,"MEAN_ANOMALY":272.5275,"EPHEMERIS_TYPE":0,"CLASSIFICATION_TYPE":"U","NORAD_CAT_ID":66036,"ELEMENT_SET_NO":999,"REV_AT_EPOCH":1945,"BSTAR":1.3058e-5,"MEAN_MOTION_DOT":2.0e-7,"MEAN_MOTION_DDOT":0},{"OBJECT_NAME":"QIANFAN-95","OBJECT_ID":"2025-233E","EPOCH":"2026-03-07T02:05:07.270080","MEAN_MOTION":13.5101526,"ECCENTRICITY":0.0002086,"INCLINATION":88.9938,"RA_OF_ASC_NODE":52.9774,"ARG_OF_PERICENTER":93.0102,"MEAN_ANOMALY":267.1288,"EPHEMERIS_TYPE":0,"CLASSIFICATION_TYPE":"U","NORAD_CAT_ID":66037,"ELEMENT_SET_NO":999,"REV_AT_EPOCH":1969,"BSTAR":7.4778e-6,"MEAN_MOTION_DOT":1.7e-7,"MEAN_MOTION_DDOT":0},{"OBJECT_NAME":"QIANFAN-96","OBJECT_ID":"2025-233F","EPOCH":"2026-03-07T04:27:35.668800","MEAN_MOTION":13.51004763,"ECCENTRICITY":0.0001981,"INCLINATION":88.9935,"RA_OF_ASC_NODE":53.5133,"ARG_OF_PERICENTER":94.1609,"MEAN_ANOMALY":265.9769,"EPHEMERIS_TYPE":0,"CLASSIFICATION_TYPE":"U","NORAD_CAT_ID":66038,"ELEMENT_SET_NO":999,"REV_AT_EPOCH":1940,"BSTAR":3.1161e-5,"MEAN_MOTION_DOT":3.2e-7,"MEAN_MOTION_DDOT":0},{"OBJECT_NAME":"QIANFAN-97","OBJECT_ID":"2025-233G","EPOCH":"2026-03-07T02:17:13.464672","MEAN_MOTION":13.51004156,"ECCENTRICITY":0.0001953,"INCLINATION":88.9938,"RA_OF_ASC_NODE":53.5031,"ARG_OF_PERICENTER":92.1448,"MEAN_ANOMALY":267.9927,"EPHEMERIS_TYPE":0,"CLASSIFICATION_TYPE":"U","NORAD_CAT_ID":66039,"ELEMENT_SET_NO":999,"REV_AT_EPOCH":1940,"BSTAR":3.0651e-5,"MEAN_MOTION_DOT":3.2e-7,"MEAN_MOTION_DDOT":0},{"OBJECT_NAME":"QIANFAN-98","OBJECT_ID":"2025-233H","EPOCH":"2026-03-07T02:28:59.895264","MEAN_MOTION":13.51004624,"ECCENTRICITY":0.0002459,"INCLINATION":88.9928,"RA_OF_ASC_NODE":53.2443,"ARG_OF_PERICENTER":84.1712,"MEAN_ANOMALY":275.9719,"EPHEMERIS_TYPE":0,"CLASSIFICATION_TYPE":"U","NORAD_CAT_ID":66040,"ELEMENT_SET_NO":999,"REV_AT_EPOCH":1954,"BSTAR":3.3728e-5,"MEAN_MOTION_DOT":3.4e-7,"MEAN_MOTION_DDOT":0},{"OBJECT_NAME":"QIANFAN-99","OBJECT_ID":"2025-233J","EPOCH":"2026-03-07T02:34:59.459232","MEAN_MOTION":13.51004913,"ECCENTRICITY":0.0002352,"INCLINATION":88.9939,"RA_OF_ASC_NODE":53.5053,"ARG_OF_PERICENTER":87.8588,"MEAN_ANOMALY":272.2833,"EPHEMERIS_TYPE":0,"CLASSIFICATION_TYPE":"U","NORAD_CAT_ID":66041,"ELEMENT_SET_NO":999,"REV_AT_EPOCH":1940,"BSTAR":3.0355e-5,"MEAN_MOTION_DOT":3.2e-7,"MEAN_MOTION_DDOT":0},{"OBJECT_NAME":"QIANFAN-100","OBJECT_ID":"2025-233K","EPOCH":"2026-03-07T02:23:05.934336","MEAN_MOTION":13.51005682,"ECCENTRICITY":0.0001938,"INCLINATION":88.995,"RA_OF_ASC_NODE":53.4217,"ARG_OF_PERICENTER":91.1311,"MEAN_ANOMALY":269.0062,"EPHEMERIS_TYPE":0,"CLASSIFICATION_TYPE":"U","NORAD_CAT_ID":66042,"ELEMENT_SET_NO":999,"REV_AT_EPOCH":1945,"BSTAR":2.7568e-5,"MEAN_MOTION_DOT":3.0e-7,"MEAN_MOTION_DDOT":0},{"OBJECT_NAME":"QIANFAN-101","OBJECT_ID":"2025-233L","EPOCH":"2026-03-07T02:39:22.528224","MEAN_MOTION":14.26736151,"ECCENTRICITY":0.0016989,"INCLINATION":88.994,"RA_OF_ASC_NODE":52.2818,"ARG_OF_PERICENTER":114.6382,"MEAN_ANOMALY":245.6584,"EPHEMERIS_TYPE":0,"CLASSIFICATION_TYPE":"U","NORAD_CAT_ID":66043,"ELEMENT_SET_NO":999,"REV_AT_EPOCH":2007,"BSTAR":0.00026858,"MEAN_MOTION_DOT":6.65e-6,"MEAN_MOTION_DDOT":0},{"OBJECT_NAME":"QIANFAN-102","OBJECT_ID":"2025-233M","EPOCH":"2026-03-07T02:52:33.445920","MEAN_MOTION":13.50992517,"ECCENTRICITY":0.0002102,"INCLINATION":88.9937,"RA_OF_ASC_NODE":53.4161,"ARG_OF_PERICENTER":88.1836,"MEAN_ANOMALY":271.9556,"EPHEMERIS_TYPE":0,"CLASSIFICATION_TYPE":"U","NORAD_CAT_ID":66044,"ELEMENT_SET_NO":999,"REV_AT_EPOCH":1945,"BSTAR":2.1277e-5,"MEAN_MOTION_DOT":2.6e-7,"MEAN_MOTION_DDOT":0}]
